ONEWEB-0230             
1 48769U 21045C   26161.31958638 -.00000001  00000+0 -37791-4 0  9998
2 48769  87.9000 260.5719 0002050  96.7388 263.3975 13.15548057243764
ONEWEB-0237             
1 48770U 21045D   26161.53664839 -.00000329  00000+0 -90821-3 0  9996
2 48770  87.9001 260.5305 0001685 100.9059 259.2261 13.15548307243517
ONEWEB-0235             
1 48771U 21045E   26161.51131630  .00000027  00000+0  37715-4 0  9990
2 48771  87.9010 260.5205 0001542 105.0218 255.1083 13.15548552243500
ONEWEB-0242             
1 48772U 21045F   26161.50496228 -.00000990  00000+0 -26629-2 0  9998
2 48772  87.9011 260.5185 0001881  96.7826 263.3519 13.15555636243546
ONEWEB-0241             
1 48773U 21045G   26161.26413600  .00000229  00000+0  57313-3 0  9993
2 48773  87.8997 260.5856 0001714 112.6265 247.5046 13.15548357243422
ONEWEB-0243             
1 48774U 21045H   26161.52398867 -.00000078  00000+0 -24009-3 0  9990
2 48774  87.9002 260.5460 0001531  89.6955 270.4351 13.15548922243486
ONEWEB-0222             
1 48775U 21045J   26161.50735111  .00000158  00000+0  38607-3 0  9992
2 48775  87.9011 260.5164 0001777 105.8060 254.3266 13.15548936243524
ONEWEB-0244             
1 48776U 21045K   26161.53349663 -.00000094  00000+0 -28507-3 0  9998
2 48776  87.9015 260.5053 0001827 100.6191 259.5145 13.15548578244098
ONEWEB-0247             
1 48777U 21045L   26161.53031653 -.00000084  00000+0 -25813-3 0  9992
2 48777  87.9000 260.5391 0001149  93.9983 266.1279 13.15547458243534
ONEWEB-0245             
1 48778U 21045M   26161.52556402 -.00000082  00000+0 -25255-3 0  9994
2 48778  87.9010 260.5185 0001878 105.9583 254.1754 13.15548077243506
ONEWEB-0229             
1 48779U 21045N   26161.52081933 -.00000030  00000+0 -11465-3 0  9998
2 48779  87.9010 260.5176 0001837  97.9311 262.2028 13.15548783243532
ONEWEB-0228             
1 48780U 21045P   26161.32604248 -.00000088  00000+0 -26699-3 0  9996
2 48780  87.9012 260.5487 0001883 101.9888 258.1453 13.15549318243426
ONEWEB-0232             
1 48781U 21045Q   26161.52873428 -.00000074  00000+0 -23004-3 0  9999
2 48781  87.9013 260.5093 0001966 103.1226 257.0124 13.15550183243776
ONEWEB-0231             
1 48782U 21045R   26161.50655552  .00000132  00000+0  31712-3 0  9992
2 48782  87.9007 260.5273 0001730 104.4695 255.6628 13.15548326243468
ONEWEB-0234             
1 48783U 21045S   26161.31627867 -.00000067  00000+0 -21333-3 0  9997
2 48783  87.9006 260.5467 0002583 115.4754 244.6644 13.15548790243571
ONEWEB-0238             
1 48784U 21045T   26161.31653837 -.00000025  00000+0 -10050-3 0  9992
2 48784  87.9012 260.5409 0002268 109.6883 250.4492 13.15550964243474
ONEWEB-0240             
1 48785U 21045U   26161.33779845  .00000206  00000+0  51327-3 0  9994
2 48785  87.9012 260.5469 0001779 110.1975 249.9347 13.15547409243502
ONEWEB-0246             
1 48786U 21045V   26161.33226674  .00000070  00000+0  15195-3 0  9994
2 48786  87.9011 260.5526 0001856  98.4559 261.6782 13.15548154243375
ONEWEB-0210             
1 48787U 21045W   26161.53507080 -.00000145  00000+0 -41972-3 0  9997
2 48787  87.9015 260.5093 0001256  79.7956 280.3316 13.15550715243441
ONEWEB-0214             
1 48788U 21045X   26161.31562087  .00000007  00000+0 -15146-4 0  9993
2 48788  87.9010 260.5496 0001919  90.2804 269.8546 13.15548912243386
ONEWEB-0221             
1 48789U 21045Y   26161.32275369  .00000084  00000+0  18919-3 0  9993
2 48789  87.9008 260.5570 0001766 103.2371 256.8956 13.15548150243476
ONEWEB-0213             
1 48790U 21045Z   26161.31164488 -.00000072  00000+0 -22598-3 0  9990
2 48790  87.9010 260.5625 0001660 100.4345 259.6972 13.15546804243535
ONEWEB-0212             
1 48791U 21045AA  26161.51685955  .00000026  00000+0  34583-4 0  9995
2 48791  87.9011 260.5158 0001996 101.9865 258.1489 13.15550339243550
ONEWEB-0227             
1 48792U 21045AB  26161.51606985  .00000046  00000+0  87561-4 0  9998
2 48792  87.9009 260.5169 0001893 102.8089 257.3253 13.15549059243506
ONEWEB-0226             
1 48793U 21045AC  26161.50972311  .00000089  00000+0  20207-3 0  9997
2 48793  87.9007 260.5231 0001696  97.4822 262.6501 13.15550282243471
ONEWEB-0224             
1 48794U 21045AD  26161.32115179 -.00000237  00000+0 -66296-3 0  9994
2 48794  87.8998 260.5949 0002121 126.1844 233.9483 13.15548538243374
ONEWEB-0233             
1 48795U 21045AE  26161.32578418  .00000066  00000+0  14194-3 0  9992
2 48795  87.8998 260.6017 0001701 106.7711 253.3606 13.15548024243397
ONEWEB-0190             
1 48796U 21045AF  26161.31322763 -.00000209  00000+0 -58931-3 0  9990
2 48796  87.9002 260.5659 0001258 104.0385 256.0885 13.15547073243461
ONEWEB-0236             
1 48797U 21045AG  26161.33067900  .00000157  00000+0  38246-3 0  9999
2 48797  87.8998 260.5725 0002093 103.1336 257.0028 13.15548205243359
ONEWEB-0248             
1 48798U 21045AH  26161.26728618  .00000182  00000+0  45024-3 0  9992
2 48798  87.9010 260.5680 0001618 113.0767 247.0534 13.15547204243502
