OBJECT_NAME,OBJECT_ID,EPOCH,MEAN_MOTION,ECCENTRICITY,INCLINATION,RA_OF_ASC_NODE,ARG_OF_PERICENTER,MEAN_ANOMALY,EPHEMERIS_TYPE,CLASSIFICATION_TYPE,NORAD_CAT_ID,ELEMENT_SET_NO,REV_AT_EPOCH,BSTAR,MEAN_MOTION_DOT,MEAN_MOTION_DDOT
ONEWEB-0230,2021-045C,2026-06-10T07:40:12.263232,13.15548057,.000205,87.9000,260.5719,96.7388,263.3975,0,U,48769,999,24376,-.37791E-4,-.1E-7,0
ONEWEB-0237,2021-045D,2026-06-10T12:52:46.420896,13.15548307,.0001685,87.9001,260.5305,100.9059,259.2261,0,U,48770,999,24351,-.90821E-3,-.329E-5,0
ONEWEB-0235,2021-045E,2026-06-10T12:16:17.728320,13.15548552,.0001542,87.9010,260.5205,105.0218,255.1083,0,U,48771,999,24350,.37715E-4,.27E-6,0
ONEWEB-0242,2021-045F,2026-06-10T12:07:08.740992,13.15555636,.0001881,87.9011,260.5185,96.7826,263.3519,0,U,48772,999,24354,-.26629E-2,-.99E-5,0
ONEWEB-0241,2021-045G,2026-06-10T06:20:21.350400,13.15548357,.0001714,87.8997,260.5856,112.6265,247.5046,0,U,48773,999,24342,.57313E-3,.229E-5,0
ONEWEB-0243,2021-045H,2026-06-10T12:34:32.621088,13.15548922,.0001531,87.9002,260.5460,89.6955,270.4351,0,U,48774,999,24348,-.24009E-3,-.78E-6,0
ONEWEB-0222,2021-045J,2026-06-10T12:10:35.135904,13.15548936,.0001777,87.9011,260.5164,105.8060,254.3266,0,U,48775,999,24352,.38607E-3,.158E-5,0
ONEWEB-0244,2021-045K,2026-06-10T12:48:14.108832,13.15548578,.0001827,87.9015,260.5053,100.6191,259.5145,0,U,48776,999,24409,-.28507E-3,-.94E-6,0
ONEWEB-0247,2021-045L,2026-06-10T12:43:39.348192,13.15547458,.0001149,87.9000,260.5391,93.9983,266.1279,0,U,48777,999,24353,-.25813E-3,-.84E-6,0
ONEWEB-0245,2021-045M,2026-06-10T12:36:48.731328,13.15548077,.0001878,87.9010,260.5185,105.9583,254.1754,0,U,48778,999,24350,-.25255E-3,-.82E-6,0
ONEWEB-0229,2021-045N,2026-06-10T12:29:58.790112,13.15548783,.0001837,87.9010,260.5176,97.9311,262.2028,0,U,48779,999,24353,-.11465E-3,-.3E-6,0
ONEWEB-0228,2021-045P,2026-06-10T07:49:30.070272,13.15549318,.0001883,87.9012,260.5487,101.9888,258.1453,0,U,48780,999,24342,-.26699E-3,-.88E-6,0
ONEWEB-0232,2021-045Q,2026-06-10T12:41:22.641792,13.15550183,.0001966,87.9013,260.5093,103.1226,257.0124,0,U,48781,999,24377,-.23004E-3,-.74E-6,0
ONEWEB-0231,2021-045R,2026-06-10T12:09:26.396928,13.15548326,.000173,87.9007,260.5273,104.4695,255.6628,0,U,48782,999,24346,.31712E-3,.132E-5,0
ONEWEB-0234,2021-045S,2026-06-10T07:35:26.477088,13.15548790,.0002583,87.9006,260.5467,115.4754,244.6644,0,U,48783,999,24357,-.21333E-3,-.67E-6,0
ONEWEB-0238,2021-045T,2026-06-10T07:35:48.915168,13.15550964,.0002268,87.9012,260.5409,109.6883,250.4492,0,U,48784,999,24347,-.1005E-3,-.25E-6,0
ONEWEB-0240,2021-045U,2026-06-10T08:06:25.786080,13.15547409,.0001779,87.9012,260.5469,110.1975,249.9347,0,U,48785,999,24350,.51327E-3,.206E-5,0
ONEWEB-0246,2021-045V,2026-06-10T07:58:27.846336,13.15548154,.0001856,87.9011,260.5526,98.4559,261.6782,0,U,48786,999,24337,.15195E-3,.7E-6,0
ONEWEB-0210,2021-045W,2026-06-10T12:50:30.117120,13.15550715,.0001256,87.9015,260.5093,79.7956,280.3316,0,U,48787,999,24344,-.41972E-3,-.145E-5,0
ONEWEB-0214,2021-045X,2026-06-10T07:34:29.643168,13.15548912,.0001919,87.9010,260.5496,90.2804,269.8546,0,U,48788,999,24338,-.15146E-4,.7E-7,0
ONEWEB-0221,2021-045Y,2026-06-10T07:44:45.918816,13.15548150,.0001766,87.9008,260.5570,103.2371,256.8956,0,U,48789,999,24347,.18919E-3,.84E-6,0
ONEWEB-0213,2021-045Z,2026-06-10T07:28:46.117632,13.15546804,.000166,87.9010,260.5625,100.4345,259.6972,0,U,48790,999,24353,-.22598E-3,-.72E-6,0
ONEWEB-0212,2021-045AA,2026-06-10T12:24:16.665120,13.15550339,.0001996,87.9011,260.5158,101.9865,258.1489,0,U,48791,999,24355,.34583E-4,.26E-6,0
ONEWEB-0227,2021-045AB,2026-06-10T12:23:08.435040,13.15549059,.0001893,87.9009,260.5169,102.8089,257.3253,0,U,48792,999,24350,.87561E-4,.46E-6,0
ONEWEB-0226,2021-045AC,2026-06-10T12:14:00.076704,13.15550282,.0001696,87.9007,260.5231,97.4822,262.6501,0,U,48793,999,24347,.20207E-3,.89E-6,0
ONEWEB-0224,2021-045AD,2026-06-10T07:42:27.514656,13.15548538,.0002121,87.8998,260.5949,126.1844,233.9483,0,U,48794,999,24337,-.66296E-3,-.237E-5,0
ONEWEB-0233,2021-045AE,2026-06-10T07:49:07.753152,13.15548024,.0001701,87.8998,260.6017,106.7711,253.3606,0,U,48795,999,24339,.14194E-3,.66E-6,0
ONEWEB-0190,2021-045AF,2026-06-10T07:31:02.867232,13.15547073,.0001258,87.9002,260.5659,104.0385,256.0885,0,U,48796,999,24346,-.58931E-3,-.209E-5,0
ONEWEB-0236,2021-045AG,2026-06-10T07:56:10.665600,13.15548205,.0002093,87.8998,260.5725,103.1336,257.0028,0,U,48797,999,24335,.38246E-3,.157E-5,0
ONEWEB-0248,2021-045AH,2026-06-10T06:24:53.525952,13.15547204,.0001618,87.9010,260.5680,113.0767,247.0534,0,U,48798,999,24350,.45024E-3,.182E-5,0
